     2.10           G: GLONASS NAV DATA                     RINEX VERSION / TYPE
teqc  2015Jun23                         20211229 01:25:46UTCPGM / RUN BY / DATE
Linux 2.4.21-27.ELsmp|Opteron|gcc -static|Linux x86_64|=+   COMMENT
  2021    12     5   -9.313225746155D-10                    CORR TO SYSTEM TIME
                                                            END OF HEADER
15 21 12  6  2 15  0.0 9.978841990232D-05-0.000000000000D+00 7.200000000000D+03
   -1.967092529297D+04 1.582641601562D+00-9.313225746155D-10 0.000000000000D+00
    7.550778808594D+03-1.174289703369D+00 0.000000000000D+00 0.000000000000D+00
    1.439375195312D+04 2.782888412476D+00-4.656612873077D-09 0.000000000000D+00
 9 21 12  6  2 15  0.0 2.724025398493D-05 1.818989403546D-12 7.200000000000D+03
   -6.069512695312D+03-1.817436218262D+00-5.587935447693D-09 0.000000000000D+00
    1.701609326172D+04 1.669967651367D+00-0.000000000000D+00-2.000000000000D+00
   -1.802316552734D+04 2.180153846741D+00-0.000000000000D+00 0.000000000000D+00
19 21 12  6  2 15  0.0-1.696180552244D-04-9.094947017729D-13 7.200000000000D+03
   -7.378566894531D+03-2.586765289307D-01-5.587935447693D-09 0.000000000000D+00
    1.325686718750D+04-2.804321289062D+00 0.000000000000D+00 3.000000000000D+00
   -2.049634912109D+04-1.720850944519D+00-0.000000000000D+00 0.000000000000D+00
20 21 12  6  2 15  0.0-6.066635251045D-05-0.000000000000D+00 7.200000000000D+03
    1.508451660156D+03 1.769962310791D-01-1.862645149231D-09 0.000000000000D+00
    2.513713037109D+04-6.026020050049D-01-1.862645149231D-09 2.000000000000D+00
   -4.170762695312D+03-3.552595138550D+00-0.000000000000D+00 0.000000000000D+00
21 21 12  6  2 15  0.0-2.599842846394D-04-2.728484105319D-12 7.200000000000D+03
    9.742275878906D+03 5.078096389771D-01 1.862645149231D-09 0.000000000000D+00
    1.840104248047D+04 1.962215423584D+00-2.793967723846D-09 4.000000000000D+00
    1.472056884766D+04-2.792630195618D+00-0.000000000000D+00 0.000000000000D+00
16 21 12  6  2 45  0.0-2.624560147524D-05-9.094947017729D-13 9.000000000000D+03
   -1.742139941406D+04 3.074254989624D-01-3.725290298462D-09 0.000000000000D+00
    1.837304931641D+04-1.740818023682D-01 0.000000000000D+00-1.000000000000D+00
    2.399410644531D+03 3.545100212097D+00-3.725290298462D-09 0.000000000000D+00
20 21 12  6  2 45  0.0-6.066728383303D-05-0.000000000000D+00 9.000000000000D+03
    1.569143066406D+03-1.461706161499D-01-3.725290298462D-09 0.000000000000D+00
    2.328686328125D+04-1.428778648376D+00-9.313225746155D-10 2.000000000000D+00
   -1.032198095703D+04-3.237752914429D+00-0.000000000000D+00 0.000000000000D+00
 9 21 12  6  2 45  0.0 2.724491059780D-05 2.728484105319D-12 9.000000000000D+03
   -8.745719726562D+03-1.151265144348D+00-5.587935447693D-09 0.000000000000D+00
    1.985576513672D+04 1.440207481384D+00 0.000000000000D+00-2.000000000000D+00
   -1.345393164062D+04 2.863742828369D+00-1.862645149231D-09 0.000000000000D+00
21 21 12  6  2 45  0.0-2.599898725748D-04-2.728484105319D-12 9.000000000000D+03
    1.075228027344D+04 5.727357864380D-01 0.000000000000D+00 0.000000000000D+00
    2.121263769531D+04 1.143023490906D+00-2.793967723846D-09 4.000000000000D+00
    9.189073730469D+03-3.313557624817D+00-0.000000000000D+00 0.000000000000D+00
19 21 12  6  2 45  0.0-1.696208491921D-04-9.094947017729D-13 9.090000000000D+03
   -8.299899414062D+03-7.696866989136D-01-5.587935447693D-09 0.000000000000D+00
    7.960395507812D+03-3.028409004211D+00 1.862645149231D-09 3.000000000000D+00
   -2.276093017578D+04-7.790222167969D-01-0.000000000000D+00 0.000000000000D+00
10 21 12  6  2 45  0.0-7.771700620651D-05-0.000000000000D+00 9.900000000000D+03
    4.426543945312D+03-2.025748252869D+00-3.725290298462D-09 0.000000000000D+00
    1.118847753906D+04 2.317761421204D+00-0.000000000000D+00-7.000000000000D+00
   -2.248951318359D+04 7.616653442383D-01 9.313225746155D-10 0.000000000000D+00
16 21 12  6  3 15  0.0-2.624839544296D-05-9.094947017729D-13 1.080000000000D+04
   -1.644111816406D+04 7.430305480957D-01-2.793967723846D-09 0.000000000000D+00
    1.739174169922D+04-9.298000335693D-01 0.000000000000D+00-1.000000000000D+00
    8.603784179688D+03 3.303475379944D+00-4.656612873077D-09 0.000000000000D+00
10 21 12  6  3 15  0.0-7.771793752909D-05-0.000000000000D+00 1.080000000000D+04
    1.235151855469D+03-1.501552581787D+00-4.656612873077D-09 0.000000000000D+00
    1.541832568359D+04 2.335127830505D+00 0.000000000000D+00-7.000000000000D+00
   -2.026637353516D+04 1.692656517029D+00 0.000000000000D+00 0.000000000000D+00
 9 21 12  6  3 15  0.0 2.724863588810D-05 2.728484105319D-12 1.080000000000D+04
   -1.022962109375D+04-5.107069015503D-01-5.587935447693D-09 0.000000000000D+00
    2.204474951172D+04 9.517641067505D-01 9.313225746155D-10-2.000000000000D+00
   -7.846917968750D+03 3.325864791870D+00-2.793967723846D-09 0.000000000000D+00
20 21 12  6  3 15  0.0-6.066821515560D-05-0.000000000000D+00 1.080000000000D+04
    8.714062500000D+02-6.528644561768D-01-4.656612873077D-09 0.000000000000D+00
    2.011143847656D+04-2.059500694275D+00 0.000000000000D+00 2.000000000000D+00
   -1.567612695312D+04-2.672648429871D+00-0.000000000000D+00 0.000000000000D+00
21 21 12  6  3 15  0.0-2.599963918328D-04-2.728484105319D-12 1.080000000000D+04
    1.164821044922D+04 3.793878555298D-01-9.313225746155D-10 0.000000000000D+00
    2.248408300781D+04 2.709589004517D-01-2.793967723846D-09 4.000000000000D+00
    2.946017089844D+03-3.578063964844D+00-0.000000000000D+00 0.000000000000D+00
16 21 12  6  3 45  0.0-2.625118941069D-05-9.094947017729D-13 1.260000000000D+04
   -1.489659179688D+04 9.299821853638D-01-9.313225746155D-10 0.000000000000D+00
    1.501065722656D+04-1.710433959961D+00 0.000000000000D+00-1.000000000000D+00
    1.413697998047D+04 2.804309844971D+00-3.725290298462D-09 0.000000000000D+00
10 21 12  6  3 45  0.0-7.771886885166D-05-0.000000000000D+00 1.260000000000D+04
   -9.443803710938D+02-9.197769165039D-01-5.587935447693D-09 0.000000000000D+00
    1.942076806641D+04 2.063769340515D+00 9.313225746155D-10-7.000000000000D+00
   -1.647408056641D+04 2.493759155273D+00-9.313225746155D-10 0.000000000000D+00
 9 21 12  6  3 45  0.0 2.725329250097D-05 2.728484105319D-12 1.260000000000D+04
   -1.066044482422D+04 3.752708435059D-03-4.656612873077D-09 0.000000000000D+00
    2.315589062500D+04 2.541551589966D-01 9.313225746155D-10-2.000000000000D+00
   -1.635162597656D+03 3.531412124634D+00-3.725290298462D-09 0.000000000000D+00
20 21 12  6  3 45  0.0-6.066914647818D-05-0.000000000000D+00 1.260000000000D+04
   -8.363891601562D+02-1.250922203064D+00-4.656612873077D-09 0.000000000000D+00
    1.603556152344D+04-2.420186996460D+00 1.862645149231D-09 2.000000000000D+00
   -1.981903857422D+04-1.900620460510D+00-0.000000000000D+00 0.000000000000D+00
21 21 12  6  3 45  0.0-2.600019797683D-04-2.728484105319D-12 1.260000000000D+04
    1.197036816406D+04-5.861854553223D-02-2.793967723846D-09 0.000000000000D+00
    2.222833837891D+04-5.344820022583D-01-9.313225746155D-10 4.000000000000D+00
   -3.525236816406D+03-3.565431594849D+00-0.000000000000D+00 0.000000000000D+00
16 21 12  6  4 15  0.0-2.625398337841D-05-9.094947017729D-13 1.440000000000D+04
   -1.324527539062D+04 8.649559020996D-01 0.000000000000D+00 0.000000000000D+00
    1.128801611328D+04-2.401714324951D+00 0.000000000000D+00-1.000000000000D+00
    1.856818750000D+04 2.087203979492D+00-3.725290298462D-09 0.000000000000D+00
10 21 12  6  4 15  0.0-7.772073149681D-05-0.000000000000D+00 1.440000000000D+04
   -2.107351562500D+03-3.897428512573D-01-4.656612873077D-09 0.000000000000D+00
    2.268299902344D+04 1.519083023071D+00 1.862645149231D-09-7.000000000000D+00
   -1.140463378906D+04 3.102373123169D+00-1.862645149231D-09 0.000000000000D+00
 9 21 12  6  4 15  0.0 2.725794911385D-05 2.728484105319D-12 1.440000000000D+04
   -1.033750732422D+04 3.171663284302D-01-2.793967723846D-09 0.000000000000D+00
    2.288481933594D+04-5.675153732300D-01 9.313225746155D-10-2.000000000000D+00
    4.702547363281D+03 3.464962005615D+00-3.725290298462D-09 0.000000000000D+00
20 21 12  6  4 15  0.0-6.067100912333D-05-0.000000000000D+00 1.440000000000D+04
   -3.619681640625D+03-1.828561782837D+00-4.656612873077D-09 0.000000000000D+00
    1.158061425781D+04-2.479415893555D+00 3.725290298462D-09 2.000000000000D+00
   -2.242962304688D+04-9.810829162598D-01-0.000000000000D+00 0.000000000000D+00
21 21 12  6  4 15  0.0-2.600075677037D-04-2.728484105319D-12 1.440000000000D+04
    1.132465380859D+04-6.829748153687D-01-3.725290298462D-09 0.000000000000D+00
    2.066417480469D+04-1.167252540588D+00 0.000000000000D+00 4.000000000000D+00
   -9.723347656250D+03-3.276544570923D+00-0.000000000000D+00 0.000000000000D+00
22 21 12  6  4 15  0.0-1.496300101280D-04-9.094947017729D-13 1.518000000000D+04
    1.772224951172D+04 7.710456848145D-01-9.313225746155D-10 0.000000000000D+00
    1.713176367188D+04 5.636873245239D-01-2.793967723846D-09-3.000000000000D+00
    6.737006347656D+03-3.449421882629D+00-0.000000000000D+00 0.000000000000D+00
22 21 12  6  4 45  0.0-1.496328040957D-04-9.094947017729D-13 1.620000000000D+04
    1.863950781250D+04 2.116489410400D-01-2.793967723846D-09 0.000000000000D+00
    1.748179589844D+04-1.521100997925D-01-9.313225746155D-10-3.000000000000D+00
    3.487626953125D+02-3.602772712708D+00-0.000000000000D+00 0.000000000000D+00
10 21 12  6  4 45  0.0-7.772166281939D-05-9.094947017729D-13 1.620000000000D+04
   -2.436987792969D+03-7.936477661133D-03-4.656612873077D-09 0.000000000000D+00
    2.476045458984D+04 7.605667114258D-01 2.793967723846D-09-7.000000000000D+00
   -5.450106933594D+03 3.470668792725D+00-2.793967723846D-09 0.000000000000D+00
 9 21 12  6  4 45  0.0 2.726260572672D-05 2.728484105319D-12 1.620000000000D+04
   -9.662569824219D+03 3.921833038330D-01-1.862645149231D-09 0.000000000000D+00
    2.110265087891D+04-1.405986785889D+00 9.313225746155D-10-2.000000000000D+00
    1.067828710938D+04 3.131837844849D+00-4.656612873077D-09 0.000000000000D+00
